{"type": "FeatureCollection", "features": [ {"type": "Feature", "properties": {"norad_id": 28659, "name": "DIRECTV 8", "group": "intelsat", "lat": 0.013916794495919744, "lon": 142.8566251090533, "alt_km": 35794.68707826734, "timestamp": "2025-12-20T11:30:28.038494+00:00", "meta": {"OBJECT_NAME": "DIRECTV 8", "OBJECT_ID": "2005-019A", "EPOCH": "2025-12-20T04:36:46.151712", "MEAN_MOTION": 1.00271258, "ECCENTRICITY": 0.0002827, "INCLINATION": 0.0156, "RA_OF_ASC_NODE": 333.8724, "ARG_OF_PERICENTER": 304.0914, "MEAN_ANOMALY": 121.2184, "EPHEMERIS_TYPE": 0, "CLASSIFICATION_TYPE": "U", "NORAD_CAT_ID": 28659, "ELEMENT_SET_NO": 999, "REV_AT_EPOCH": 7527, "BSTAR": 0, "MEAN_MOTION_DOT": 2.5e-07, "MEAN_MOTION_DDOT": 0}, "tle": {"line1": "1 28659U 05019A   25354.19220083  .00000025  00000+0  00000+0 0  9994", "line2": "2 28659   0.0156 333.8724 0002827 304.0914 121.2184  1.00271258 75270"}}, "geometry": {"type": "Point", "coordinates": [142.8566251090533, 0.013916794495919744]}}, {"type": "Feature", "properties": {"norad_id": 28702, "name": "GALAXY 28 (G-28)", "group": "intelsat", "lat": 2.841696032682105, "lon": 173.2107192940394, "alt_km": 35788.531405930706, "timestamp": "2025-12-20T11:30:28.038506+00:00", "meta": {"OBJECT_NAME": "GALAXY 28 (G-28)", "OBJECT_ID": "2005-022A", "EPOCH": "2025-12-20T00:49:30.482112", "MEAN_MOTION": 1.00271047, "ECCENTRICITY": 0.0002938, "INCLINATION": 2.8382, "RA_OF_ASC_NODE": 81.1982, "ARG_OF_PERICENTER": 194.0723, "MEAN_ANOMALY": 97.2981, "EPHEMERIS_TYPE": 0, "CLASSIFICATION_TYPE": "U", "NORAD_CAT_ID": 28702, "ELEMENT_SET_NO": 999, "REV_AT_EPOCH": 5017, "BSTAR": 0, "MEAN_MOTION_DOT": -1.65e-06, "MEAN_MOTION_DDOT": 0}, "tle": {"line1": "1 28702U 05022A   25354.03438058 -.00000165  00000+0  00000+0 0  9999", "line2": "2 28702   2.8382  81.1982 0002938 194.0723  97.2981  1.00271047 50172"}}, "geometry": {"type": "Point", "coordinates": [173.2107192940394, 2.841696032682105]}}, {"type": "Feature", "properties": {"norad_id": 29236, "name": "GALAXY 16 (G-16)", "group": "intelsat", "lat": -0.00021377955220960716, "lon": 162.88863919405418, "alt_km": 35788.56085225831, "timestamp": "2025-12-20T11:30:28.038517+00:00", "meta": {"OBJECT_NAME": "GALAXY 16 (G-16)", "OBJECT_ID": "2006-023A", "EPOCH": "2025-12-20T02:29:17.838816", "MEAN_MOTION": 1.00271324, "ECCENTRICITY": 0.000246, "INCLINATION": 0.0099, "RA_OF_ASC_NODE": 262.1374, "ARG_OF_PERICENTER": 3.6929, "MEAN_ANOMALY": 121.4333, "EPHEMERIS_TYPE": 0, "CLASSIFICATION_TYPE": "U", "NORAD_CAT_ID": 29236, "ELEMENT_SET_NO": 999, "REV_AT_EPOCH": 7117, "BSTAR": 0, "MEAN_MOTION_DOT": -1.03e-06, "MEAN_MOTION_DDOT": 0}, "tle": {"line1": "1 29236U 06023A   25354.10367869 -.00000103  00000+0  00000+0 0  9995", "line2": "2 29236   0.0099 262.1374 0002460   3.6929 121.4333  1.00271324 71171"}}, "geometry": {"type": "Point", "coordinates": [162.88863919405418, -0.00021377955220960716]}}, {"type": "Feature", "properties": {"norad_id": 29494, "name": "DIRECTV 9S", "group": "intelsat", "lat": 1.9219800999602892, "lon": 160.67571894293675, "alt_km": 35790.768761342195, "timestamp": "2025-12-20T11:30:28.038529+00:00", "meta": {"OBJECT_NAME": "DIRECTV 9S", "OBJECT_ID": "2006-043A", "EPOCH": "2025-12-20T02:28:40.399104", "MEAN_MOTION": 1.00271685, "ECCENTRICITY": 0.0002817, "INCLINATION": 1.9581, "RA_OF_ASC_NODE": 83.1359, "ARG_OF_PERICENTER": 191.8611, "MEAN_ANOMALY": 109.9024, "EPHEMERIS_TYPE": 0, "CLASSIFICATION_TYPE": "U", "NORAD_CAT_ID": 29494, "ELEMENT_SET_NO": 999, "REV_AT_EPOCH": 4958, "BSTAR": 0, "MEAN_MOTION_DOT": -9.1e-07, "MEAN_MOTION_DDOT": 0}, "tle": {"line1": "1 29494U 06043A   25354.10324536 -.00000091  00000+0  00000+0 0  9993", "line2": "2 29494   1.9581  83.1359 0002817 191.8611 109.9024  1.00271685 49589"}}, "geometry": {"type": "Point", "coordinates": [160.67571894293675, 1.9219800999602892]}}, {"type": "Feature", "properties": {"norad_id": 31307, "name": "GALAXY 17 (G-17)", "group": "intelsat", "lat": 2.5121645848487795, "lon": 176.90762637263646, "alt_km": 35780.007599633595, "timestamp": "2025-12-20T11:30:28.038540+00:00", "meta": {"OBJECT_NAME": "GALAXY 17 (G-17)", "OBJECT_ID": "2007-016B", "EPOCH": "2025-12-20T00:50:37.874112", "MEAN_MOTION": 1.00272416, "ECCENTRICITY": 0.0005428, "INCLINATION": 2.5175, "RA_OF_ASC_NODE": 82.2053, "ARG_OF_PERICENTER": 170.456, "MEAN_ANOMALY": 123.9095, "EPHEMERIS_TYPE": 0, "CLASSIFICATION_TYPE": "U", "NORAD_CAT_ID": 31307, "ELEMENT_SET_NO": 999, "REV_AT_EPOCH": 6800, "BSTAR": 0, "MEAN_MOTION_DOT": -1.84e-06, "MEAN_MOTION_DDOT": 0}, "tle": {"line1": "1 31307U 07016B   25354.03516058 -.00000184  00000+0  00000+0 0  9997", "line2": "2 31307   2.5175  82.2053 0005428 170.4560 123.9095  1.00272416 68004"}}, "geometry": {"type": "Point", "coordinates": [176.90762637263646, 2.5121645848487795]}}, {"type": "Feature", "properties": {"norad_id": 31862, "name": "DIRECTV 10", "group": "intelsat", "lat": 0.00028909231666569157, "lon": 159.1258569033844, "alt_km": 35784.34071729505, "timestamp": "2025-12-20T11:30:28.038552+00:00", "meta": {"OBJECT_NAME": "DIRECTV 10", "OBJECT_ID": "2007-032A", "EPOCH": "2025-12-19T22:03:56.325024", "MEAN_MOTION": 1.00274879, "ECCENTRICITY": 2.87e-05, "INCLINATION": 0.0068, "RA_OF_ASC_NODE": 101.121, "ARG_OF_PERICENTER": 14.8221, "MEAN_ANOMALY": 200.9996, "EPHEMERIS_TYPE": 0, "CLASSIFICATION_TYPE": "U", "NORAD_CAT_ID": 31862, "ELEMENT_SET_NO": 999, "REV_AT_EPOCH": 4379, "BSTAR": 0, "MEAN_MOTION_DOT": -7.9e-07, "MEAN_MOTION_DDOT": 0}, "tle": {"line1": "1 31862U 07032A   25353.91940191 -.00000079  00000+0  00000+0 0  9999", "line2": "2 31862   0.0068 101.1210 0000287  14.8221 200.9996  1.00274879 43793"}}, "geometry": {"type": "Point", "coordinates": [159.1258569033844, 0.00028909231666569157]}}, {"type": "Feature", "properties": {"norad_id": 32253, "name": "INTELSAT 11 (IS-11)", "group": "intelsat", "lat": 0.7052920946586558, "lon": 93.50875037299167, "alt_km": 36164.74972606665, "timestamp": "2025-12-20T11:30:28.038564+00:00", "meta": {"OBJECT_NAME": "INTELSAT 11 (IS-11)", "OBJECT_ID": "2007-044B", "EPOCH": "2025-12-19T15:54:17.392320", "MEAN_MOTION": 0.99051924, "ECCENTRICITY": 0.0008546, "INCLINATION": 3.0972, "RA_OF_ASC_NODE": 80.9007, "ARG_OF_PERICENTER": 168.5699, "MEAN_ANOMALY": 272.8399, "EPHEMERIS_TYPE": 0, "CLASSIFICATION_TYPE": "U", "NORAD_CAT_ID": 32253, "ELEMENT_SET_NO": 999, "REV_AT_EPOCH": 6667, "BSTAR": 0, "MEAN_MOTION_DOT": -3.8e-07, "MEAN_MOTION_DDOT": 0}, "tle": {"line1": "1 32253U 07044B   25353.66270130 -.00000038  00000+0  00000+0 0  9993", "line2": "2 32253   3.0972  80.9007 0008546 168.5699 272.8399  0.99051924 66673"}}, "geometry": {"type": "Point", "coordinates": [93.50875037299167, 0.7052920946586558]}}, {"type": "Feature", "properties": {"norad_id": 32388, "name": "HORIZONS-2", "group": "intelsat", "lat": 2.061822388130342, "lon": -171.90129142136664, "alt_km": 35785.24053310182, "timestamp": "2025-12-20T11:30:28.038575+00:00", "meta": {"OBJECT_NAME": "HORIZONS-2", "OBJECT_ID": "2007-063B", "EPOCH": "2025-12-20T01:09:47.951424", "MEAN_MOTION": 1.00271893, "ECCENTRICITY": 0.0004578, "INCLINATION": 2.1395, "RA_OF_ASC_NODE": 82.8832, "ARG_OF_PERICENTER": 193.5825, "MEAN_ANOMALY": 116.0892, "EPHEMERIS_TYPE": 0, "CLASSIFICATION_TYPE": "U", "NORAD_CAT_ID": 32388, "ELEMENT_SET_NO": 999, "REV_AT_EPOCH": 6601, "BSTAR": 0, "MEAN_MOTION_DOT": -2.31e-06, "MEAN_MOTION_DDOT": 0}, "tle": {"line1": "1 32388U 07063B   25354.04847166 -.00000231  00000+0  00000+0 0  9990", "line2": "2 32388   2.1395  82.8832 0004578 193.5825 116.0892  1.00271893 66015"}}, "geometry": {"type": "Point", "coordinates": [-171.90129142136664, 2.061822388130342]}}, {"type": "Feature", "properties": {"norad_id": 32729, "name": "DIRECTV 11", "group": "intelsat", "lat": -0.004523915872531926, "lon": 162.73605795402352, "alt_km": 35784.00649647846, "timestamp": "2025-12-20T11:30:28.038587+00:00", "meta": {"OBJECT_NAME": "DIRECTV 11", "OBJECT_ID": "2008-013A", "EPOCH": "2025-12-19T16:13:00.599232", "MEAN_MOTION": 1.00272169, "ECCENTRICITY": 4.774e-05, "INCLINATION": 0.0442, "RA_OF_ASC_NODE": 195.9689, "ARG_OF_PERICENTER": 333.3014, "MEAN_ANOMALY": 63.3182, "EPHEMERIS_TYPE": 0, "CLASSIFICATION_TYPE": "U", "NORAD_CAT_ID": 32729, "ELEMENT_SET_NO": 999, "REV_AT_EPOCH": 4379, "BSTAR": 0, "MEAN_MOTION_DOT": -1.01e-06, "MEAN_MOTION_DDOT": 0}, "tle": {"line1": "1 32729U 08013A   25353.67570138 -.00000101  00000+0  00000+0 0  9991", "line2": "2 32729   0.0442 195.9689 0000477 333.3014  63.3182  1.00272169 43791"}}, "geometry": {"type": "Point", "coordinates": [162.73605795402352, -0.004523915872531926]}}, {"type": "Feature", "properties": {"norad_id": 32951, "name": "GALAXY 18 (G-18)", "group": "intelsat", "lat": 0.027111929573980464, "lon": 138.88720470724772, "alt_km": 35794.69079421644, "timestamp": "2025-12-20T11:30:28.038599+00:00", "meta": {"OBJECT_NAME": "GALAXY 18 (G-18)", "OBJECT_ID": "2008-024A", "EPOCH": "2025-12-20T04:37:38.708832", "MEAN_MOTION": 1.00271005, "ECCENTRICITY": 0.0002822, "INCLINATION": 0.0137, "RA_OF_ASC_NODE": 52.2969, "ARG_OF_PERICENTER": 221.3237, "MEAN_ANOMALY": 121.812, "EPHEMERIS_TYPE": 0, "CLASSIFICATION_TYPE": "U", "NORAD_CAT_ID": 32951, "ELEMENT_SET_NO": 999, "REV_AT_EPOCH": 4405, "BSTAR": 0, "MEAN_MOTION_DOT": 4.9e-07, "MEAN_MOTION_DDOT": 0}, "tle": {"line1": "1 32951U 08024A   25354.19280913  .00000049  00000+0  00000+0 0  9997", "line2": "2 32951   0.0137  52.2969 0002822 221.3237 121.8120  1.00271005 44054"}}, "geometry": {"type": "Point", "coordinates": [138.88720470724772, 0.027111929573980464]}}]}